{"type": "FeatureCollection", "features": [ {"type": "Feature", "properties": {"norad_id": 57401, "name": "TIANMU-1 09", "group": "weather", "lat": 51.94103836075024, "lon": -123.53914260164855, "alt_km": 475.16751438057963, "timestamp": "2025-12-24T03:53:29.285498+00:00", "meta": {"OBJECT_NAME": "TIANMU-1 09", "OBJECT_ID": "2023-101C", "EPOCH": "2025-12-23T21:03:02.545056", "MEAN_MOTION": 15.28240137, "ECCENTRICITY": 0.0006293, "INCLINATION": 97.2802, "RA_OF_ASC_NODE": 46.7848, "ARG_OF_PERICENTER": 53.4077, "MEAN_ANOMALY": 306.7741, "EPHEMERIS_TYPE": 0, "CLASSIFICATION_TYPE": "U", "NORAD_CAT_ID": 57401, "ELEMENT_SET_NO": 999, "REV_AT_EPOCH": 13485, "BSTAR": 0.0002787, "MEAN_MOTION_DOT": 7.601e-05, "MEAN_MOTION_DDOT": 0}, "tle": {"line1": "1 57401U 23101C   25357.87711279  .00007601  00000+0  27870-3 0  9998", "line2": "2 57401  97.2802  46.7848 0006293  53.4077 306.7741 15.28240137134852"}}, "geometry": {"type": "Point", "coordinates": [-123.53914260164855, 51.94103836075024]}}, {"type": "Feature", "properties": {"norad_id": 57402, "name": "TIANMU-1 10", "group": "weather", "lat": -60.41477752269038, "lon": 60.95346265722797, "alt_km": 490.2457191260155, "timestamp": "2025-12-24T03:53:29.285508+00:00", "meta": {"OBJECT_NAME": "TIANMU-1 10", "OBJECT_ID": "2023-101D", "EPOCH": "2025-12-23T20:18:06.292224", "MEAN_MOTION": 15.28231299, "ECCENTRICITY": 0.0008028, "INCLINATION": 97.2883, "RA_OF_ASC_NODE": 47.6159, "ARG_OF_PERICENTER": 50.9524, "MEAN_ANOMALY": 309.2429, "EPHEMERIS_TYPE": 0, "CLASSIFICATION_TYPE": "U", "NORAD_CAT_ID": 57402, "ELEMENT_SET_NO": 999, "REV_AT_EPOCH": 13484, "BSTAR": 0.00027671, "MEAN_MOTION_DOT": 7.546e-05, "MEAN_MOTION_DDOT": 0}, "tle": {"line1": "1 57402U 23101D   25357.84590616  .00007546  00000+0  27671-3 0  9993", "line2": "2 57402  97.2883  47.6159 0008028  50.9524 309.2429 15.28231299134843"}}, "geometry": {"type": "Point", "coordinates": [60.95346265722797, -60.41477752269038]}}, {"type": "Feature", "properties": {"norad_id": 57490, "name": "FENGYUN 3F", "group": "weather", "lat": 72.14528330737863, "lon": 37.863734065541934, "alt_km": 818.287550838405, "timestamp": "2025-12-24T03:53:29.285518+00:00", "meta": {"OBJECT_NAME": "FENGYUN 3F", "OBJECT_ID": "2023-111A", "EPOCH": "2025-12-23T20:46:39.810720", "MEAN_MOTION": 14.19896376, "ECCENTRICITY": 8.11e-05, "INCLINATION": 98.7068, "RA_OF_ASC_NODE": 65.9789, "ARG_OF_PERICENTER": 115.8302, "MEAN_ANOMALY": 244.2958, "EPHEMERIS_TYPE": 0, "CLASSIFICATION_TYPE": "U", "NORAD_CAT_ID": 57490, "ELEMENT_SET_NO": 999, "REV_AT_EPOCH": 12398, "BSTAR": 6.1021e-05, "MEAN_MOTION_DOT": 8.6e-07, "MEAN_MOTION_DDOT": 0}, "tle": {"line1": "1 57490U 23111A   25357.86573855  .00000086  00000+0  61021-4 0  9999", "line2": "2 57490  98.7068  65.9789 0000811 115.8302 244.2958 14.19896376123980"}}, "geometry": {"type": "Point", "coordinates": [37.863734065541934, 72.14528330737863]}}, {"type": "Feature", "properties": {"norad_id": 58584, "name": "ARKTIKA-M 2", "group": "weather", "lat": 50.42026929441507, "lon": -44.023061231678106, "alt_km": 27122.69861595525, "timestamp": "2025-12-24T03:53:29.285533+00:00", "meta": {"OBJECT_NAME": "ARKTIKA-M 2", "OBJECT_ID": "2023-198A", "EPOCH": "2025-12-23T19:04:51.780000", "MEAN_MOTION": 2.00602438, "ECCENTRICITY": 0.6865821, "INCLINATION": 63.2256, "RA_OF_ASC_NODE": 173.6885, "ARG_OF_PERICENTER": 268.0594, "MEAN_ANOMALY": 18.8414, "EPHEMERIS_TYPE": 0, "CLASSIFICATION_TYPE": "U", "NORAD_CAT_ID": 58584, "ELEMENT_SET_NO": 999, "REV_AT_EPOCH": 1480, "BSTAR": 0, "MEAN_MOTION_DOT": 2.16e-06, "MEAN_MOTION_DDOT": 0}, "tle": {"line1": "1 58584U 23198A   25357.79504375  .00000216  00000+0  00000+0 0  9992", "line2": "2 58584  63.2256 173.6885 6865821 268.0594  18.8414  2.00602438 14808"}}, "geometry": {"type": "Point", "coordinates": [-44.023061231678106, 50.42026929441507]}}, {"type": "Feature", "properties": {"norad_id": 58645, "name": "TIANMU-1 11", "group": "weather", "lat": -25.029493834446942, "lon": 21.044545855201346, "alt_km": 495.77719036463714, "timestamp": "2025-12-24T03:53:29.285545+00:00", "meta": {"OBJECT_NAME": "TIANMU-1 11", "OBJECT_ID": "2023-205A", "EPOCH": "2025-12-23T20:07:35.971392", "MEAN_MOTION": 15.24727181, "ECCENTRICITY": 0.000754, "INCLINATION": 97.3595, "RA_OF_ASC_NODE": 17.2667, "ARG_OF_PERICENTER": 262.8731, "MEAN_ANOMALY": 97.165, "EPHEMERIS_TYPE": 0, "CLASSIFICATION_TYPE": "U", "NORAD_CAT_ID": 58645, "ELEMENT_SET_NO": 999, "REV_AT_EPOCH": 11078, "BSTAR": 0.00024332, "MEAN_MOTION_DOT": 5.956e-05, "MEAN_MOTION_DDOT": 0}, "tle": {"line1": "1 58645U 23205A   25357.83861078  .00005956  00000+0  24332-3 0  9994", "line2": "2 58645  97.3595  17.2667 0007540 262.8731  97.1650 15.24727181110785"}}, "geometry": {"type": "Point", "coordinates": [21.044545855201346, -25.029493834446942]}}, {"type": "Feature", "properties": {"norad_id": 58646, "name": "TIANMU-1 12", "group": "weather", "lat": -2.29770081022766, "lon": -162.91079509106126, "alt_km": 493.12452134512023, "timestamp": "2025-12-24T03:53:29.285555+00:00", "meta": {"OBJECT_NAME": "TIANMU-1 12", "OBJECT_ID": "2023-205B", "EPOCH": "2025-12-23T20:47:36.976416", "MEAN_MOTION": 15.24614106, "ECCENTRICITY": 0.0005927, "INCLINATION": 97.3583, "RA_OF_ASC_NODE": 17.0958, "ARG_OF_PERICENTER": 240.5538, "MEAN_ANOMALY": 119.5109, "EPHEMERIS_TYPE": 0, "CLASSIFICATION_TYPE": "U", "NORAD_CAT_ID": 58646, "ELEMENT_SET_NO": 999, "REV_AT_EPOCH": 11077, "BSTAR": 0.00026999, "MEAN_MOTION_DOT": 6.592e-05, "MEAN_MOTION_DDOT": 0}, "tle": {"line1": "1 58646U 23205B   25357.86640019  .00006592  00000+0  26999-3 0  9996", "line2": "2 58646  97.3583  17.0958 0005927 240.5538 119.5109 15.24614106110778"}}, "geometry": {"type": "Point", "coordinates": [-162.91079509106126, -2.29770081022766]}}, {"type": "Feature", "properties": {"norad_id": 58647, "name": "TIANMU-1 13", "group": "weather", "lat": -0.05998398594015003, "lon": 17.599707877842945, "alt_km": 498.4860746916502, "timestamp": "2025-12-24T03:53:29.285565+00:00", "meta": {"OBJECT_NAME": "TIANMU-1 13", "OBJECT_ID": "2023-205C", "EPOCH": "2025-12-23T20:00:57.803040", "MEAN_MOTION": 15.24656737, "ECCENTRICITY": 0.0006535, "INCLINATION": 97.361, "RA_OF_ASC_NODE": 17.2695, "ARG_OF_PERICENTER": 218.411, "MEAN_ANOMALY": 141.6663, "EPHEMERIS_TYPE": 0, "CLASSIFICATION_TYPE": "U", "NORAD_CAT_ID": 58647, "ELEMENT_SET_NO": 999, "REV_AT_EPOCH": 11076, "BSTAR": 0.00025185, "MEAN_MOTION_DOT": 6.153e-05, "MEAN_MOTION_DDOT": 0}, "tle": {"line1": "1 58647U 23205C   25357.83400235  .00006153  00000+0  25185-3 0  9997", "line2": "2 58647  97.3610  17.2695 0006535 218.4110 141.6663 15.24656737110762"}}, "geometry": {"type": "Point", "coordinates": [17.599707877842945, -0.05998398594015003]}}, {"type": "Feature", "properties": {"norad_id": 58648, "name": "TIANMU-1 14", "group": "weather", "lat": 82.63404845360385, "lon": -75.4820639541378, "alt_km": 487.7817538650179, "timestamp": "2025-12-24T03:53:29.285578+00:00", "meta": {"OBJECT_NAME": "TIANMU-1 14", "OBJECT_ID": "2023-205D", "EPOCH": "2025-12-23T21:11:44.683584", "MEAN_MOTION": 15.24640201, "ECCENTRICITY": 0.0007243, "INCLINATION": 97.3544, "RA_OF_ASC_NODE": 16.6564, "ARG_OF_PERICENTER": 224.3425, "MEAN_ANOMALY": 135.7233, "EPHEMERIS_TYPE": 0, "CLASSIFICATION_TYPE": "U", "NORAD_CAT_ID": 58648, "ELEMENT_SET_NO": 999, "REV_AT_EPOCH": 11077, "BSTAR": 0.00026139, "MEAN_MOTION_DOT": 6.387e-05, "MEAN_MOTION_DDOT": 0}, "tle": {"line1": "1 58648U 23205D   25357.88315606  .00006387  00000+0  26139-3 0  9999", "line2": "2 58648  97.3544  16.6564 0007243 224.3425 135.7233 15.24640201110776"}}, "geometry": {"type": "Point", "coordinates": [-75.4820639541378, 82.63404845360385]}}, {"type": "Feature", "properties": {"norad_id": 58660, "name": "TIANMU-1 19", "group": "weather", "lat": 55.4094208336509, "lon": -59.89974794051851, "alt_km": 475.8676350772075, "timestamp": "2025-12-24T03:53:29.285588+00:00", "meta": {"OBJECT_NAME": "TIANMU-1 19", "OBJECT_ID": "2023-208A", "EPOCH": "2025-12-23T21:03:52.445376", "MEAN_MOTION": 15.28043794, "ECCENTRICITY": 0.000471, "INCLINATION": 97.4392, "RA_OF_ASC_NODE": 108.8941, "ARG_OF_PERICENTER": 205.0938, "MEAN_ANOMALY": 155.0073, "EPHEMERIS_TYPE": 0, "CLASSIFICATION_TYPE": "U", "NORAD_CAT_ID": 58660, "ELEMENT_SET_NO": 999, "REV_AT_EPOCH": 11052, "BSTAR": 0.00033825, "MEAN_MOTION_DOT": 9.182e-05, "MEAN_MOTION_DDOT": 0}, "tle": {"line1": "1 58660U 23208A   25357.87769034  .00009182  00000+0  33825-3 0  9999", "line2": "2 58660  97.4392 108.8941 0004710 205.0938 155.0073 15.28043794110524"}}, "geometry": {"type": "Point", "coordinates": [-59.89974794051851, 55.4094208336509]}}, {"type": "Feature", "properties": {"norad_id": 58661, "name": "TIANMU-1 20", "group": "weather", "lat": -65.95069009121318, "lon": -87.37399935017532, "alt_km": 481.27437927293795, "timestamp": "2025-12-24T03:53:29.285598+00:00", "meta": {"OBJECT_NAME": "TIANMU-1 20", "OBJECT_ID": "2023-208B", "EPOCH": "2025-12-23T20:31:57.857664", "MEAN_MOTION": 15.29234202, "ECCENTRICITY": 0.0006748, "INCLINATION": 97.433, "RA_OF_ASC_NODE": 109.3305, "ARG_OF_PERICENTER": 219.6739, "MEAN_ANOMALY": 140.4008, "EPHEMERIS_TYPE": 0, "CLASSIFICATION_TYPE": "U", "NORAD_CAT_ID": 58661, "ELEMENT_SET_NO": 999, "REV_AT_EPOCH": 11059, "BSTAR": 0.00033762, "MEAN_MOTION_DOT": 9.509e-05, "MEAN_MOTION_DDOT": 0}, "tle": {"line1": "1 58661U 23208B   25357.85553076  .00009509  00000+0  33762-3 0  9998", "line2": "2 58661  97.4330 109.3305 0006748 219.6739 140.4008 15.29234202110590"}}, "geometry": {"type": "Point", "coordinates": [-87.37399935017532, -65.95069009121318]}}]}